OBJECT_NAME,OBJECT_ID,EPOCH,MEAN_MOTION,ECCENTRICITY,INCLINATION,RA_OF_ASC_NODE,ARG_OF_PERICENTER,MEAN_ANOMALY,EPHEMERIS_TYPE,CLASSIFICATION_TYPE,NORAD_CAT_ID,ELEMENT_SET_NO,REV_AT_EPOCH,BSTAR,MEAN_MOTION_DOT,MEAN_MOTION_DDOT
SAUDISAT 1C (SO-50),2002-058C,2026-07-08T22:27:17.200800,14.83090746,.00747061,64.5518,61.6946,258.4242,100.8471,0,U,27607,999,26768,.8107867E-4,.536E-5,0
SAUDISAT 2,2004-025F,2026-07-08T22:34:41.953440,14.56696036,.00237461,98.5515,190.4855,228.0122,131.9053,0,U,28371,999,16891,.47011469E-4,.161E-5,0
SAUDISAT 3,2007-012B,2026-07-08T19:34:02.641440,14.71437984,.0015169,98.1465,140.2314,153.9644,206.2329,0,U,31118,999,3092,.3514396E-4,.167E-5,0
PISAT,2016-059B,2026-07-08T19:18:30.777696,14.69022006,.0030125,97.8186,189.3290,134.3845,225.9836,0,U,41784,999,52291,.11876115E-3,.654E-5,0
FLYING LAPTOP,2017-042G,2026-07-08T23:33:26.748576,15.01286219,.00199065,97.4785,344.6903,52.1036,308.1985,0,U,42831,999,48972,.19485408E-3,.2458E-4,0
SALSAT,2020-068K,2026-07-08T22:11:41.845632,15.30112926,.00085482,97.8859,194.3174,216.5599,143.5058,0,U,46495,999,31868,.16857153E-3,.4831E-4,0
