SAUDISAT 1C (SO-50)     
1 27607U 02058C   26189.93561575  .00000536  00000+0  81079-4 0  9996
2 27607  64.5518  61.6946 0074706 258.4242 100.8471 14.83090746267688
SAUDISAT 2              
1 28371U 04025F   26189.94076335  .00000161  00000+0  47011-4 0  9999
2 28371  98.5515 190.4855 0023746 228.0122 131.9053 14.56696036168910
SAUDISAT 3              
1 31118U 07012B   26189.81530835  .00000167  00000+0  35144-4 0  9997
2 31118  98.1465 140.2314 0015169 153.9644 206.2329 14.71437984 30924
PISAT                   
1 41784U 16059B   26189.80452289  .00000654  00000+0  11876-3 0  9999
2 41784  97.8186 189.3290 0030125 134.3845 225.9836 14.69022006522910
FLYING LAPTOP           
1 42831U 17042G   26189.98155959  .00002458  00000+0  19485-3 0  9997
2 42831  97.4785 344.6903 0019906  52.1036 308.1985 15.01286219489720
SALSAT                  
1 46495U 20068K   26189.92478988  .00004831  00000+0  16857-3 0  9990
2 46495  97.8859 194.3174 0008548 216.5599 143.5058 15.30112926318689
